ONEWEB-0395             
1 50475U 21132G   25046.46993760  .00000080  00000+0  19001-3 0  9992
2 50475  87.8880 118.1142 0001725  92.9006 267.2319 13.11418978151922
ONEWEB-0396             
1 50476U 21132H   25046.57142115 -.00000022  00000+0 -89783-4 0  9998
2 50476  87.9050  72.2323 0001715  94.2681 265.8647 13.18686900157504
ONEWEB-0397             
1 50477U 21132J   25046.58563539  .00000071  00000+0  14829-3 0  9997
2 50477  87.9045  72.2310 0001715  99.4677 260.6649 13.18688078157487
ONEWEB-0398             
1 50478U 21132K   25046.59031336 -.00000141  00000+0 -43279-3 0  9995
2 50478  87.8869 118.0599 0002114  91.4624 268.6746 13.11413078151835
ONEWEB-0399             
1 50479U 21132L   25046.57675850  .00000424  00000+0  11604-2 0  9997
2 50479  87.8869 118.0836 0001609 112.1558 247.9741 13.11414033151821
ONEWEB-0400             
1 50480U 21132M   25046.56510049  .00000051  00000+0  96024-4 0  9993
2 50480  87.9046  72.2295 0002054  88.2847 271.8520 13.18686667157479
ONEWEB-0401             
1 50481U 21132N   25046.60778635 -.00000007  00000+0 -51453-4 0  9996
2 50481  87.9046  72.2149 0001863 102.0021 258.1320 13.18686408157484
ONEWEB-0402             
1 50482U 21132P   25046.57300579  .00000055  00000+0  10653-3 0  9998
2 50482  87.9046  72.2193 0001924 113.4409 246.6925 13.18685917157508
